TIANMU-1 21             
1 58662U 23208C   24014.56896685  .00009264  00000+0  51014-3 0  9990
2 58662  97.3974 131.2072 0009947 190.2319 169.8712 15.14199140  2773
TIANMU-1 22             
1 58663U 23208D   24014.56504902  .00008555  00000+0  46720-3 0  9999
2 58663  97.3988 131.2158 0010305 199.6260 160.4577 15.14517091  2777
TIANMU-1 15             
1 58700U 24004A   24014.57167006  .00008112  00000+0  45342-3 0  9995
2 58700  97.4564 198.7636 0010341 222.1393 137.9044 15.13704771  1373
TIANMU-1 16             
1 58701U 24004B   24014.56948136  .00008295  00000+0  45748-3 0  9998
2 58701  97.4490 198.7570 0010531 228.9110 131.1213 15.14177347  1379
TIANMU-1 17             
1 58702U 24004C   24014.56862698  .00008280  00000+0  45478-3 0  9991
2 58702  97.4535 198.7639 0009863 231.3271 128.7080 15.14329542  1367
TIANMU-1 18             
1 58703U 24004D   24014.63234907  .00008098  00000+0  43989-3 0  9998
2 58703  97.4550 198.8335 0010534 241.0910 118.9266 15.14725138  1373
QPS-SAR-5 (TSUKUYOMI-I) 
1 58578U 23196A   24014.55982192  .00007919  00000+0  69491-3 0  9993
2 58578  42.0176 272.9034 0004575 120.8029 239.3246 14.96814471  4553
ELECTRON KICK STAGE R/B 
1 58579U 23196B   24014.08695789  .00007078  00000+0  61896-3 0  9992
2 58579  42.0190 275.4195 0005658 115.4387 244.7024 14.97057237  4471
YAOGAN-41               
1 58582U 23197A   24014.58088985 -.00000354  00000+0  00000+0 0  9993
2 58582   4.9340 307.7516 0012952 170.8936 327.1698  1.00265324   450
CZ-5 R/B                
1 58583U 23197B   24014.29999381  .00004312  00000+0  19598-2 0  9995
2 58583  19.0075 297.9134 7175664 201.2602  99.1368  2.39958679   719
2023-198A               
1 58584U 23198A   24008.31627196  .00000077  00000+0  00000+0 0  9994
2 58584  63.2864 255.1512 7065377 269.9528 258.0433  2.00532657   441
2023-198B               
1 58585U 23198B   24013.57521389 -.00001120  00000+0  00000+0 0  9997
2 58585  63.2878 254.4084 7099814 269.8080  16.3107  1.99051995   573
2023-199A               
1 58586U 23199A   24014.58495896  .00017383  00000+0  72917-3 0  9991
2 58586  97.4058 133.5885 0011701 153.1472 207.0373 15.23489765  4302
2023-199B               
1 58587U 23199B   24014.55259238  .00134715  74878-5  67373-3 0  9996
2 58587  97.6945 136.4794 0152469 265.8672  92.5150 15.66698438  4419
STARLINK-31044          
1 58589U 23200A   24014.58334491 -.02201390  00000+0 -82228-1 0  9991
2 58589  43.0005 126.2229 0000848 266.3665 227.2528 15.30298152  5466
STARLINK-31062          
1 58590U 23200B   24014.58334491 -.00121104  00000+0 -46918-2 0  9992
2 58590  43.0002 126.8092 0001006 245.5843   6.5516 15.25941485  5466
STARLINK-31043          
1 58591U 23200C   24014.58334491  .00050282  00000+0  19199-2 0  9990
2 58591  43.0002 126.7787 0002270 250.2142  14.3376 15.25892742  5468
STARLINK-31096          
1 58592U 23200D   24014.58334491 -.00194396  00000+0 -75919-2 0  9990
2 58592  43.0000 126.7489 0000973 296.7923 340.1959 15.26029384  5468
STARLINK-31094          
1 58593U 23200E   24014.58334491 -.00021905  00000+0 -82974-3 0  9996
2 58593  43.0000 126.7190 0001374 259.7332  29.7079 15.25921229  5479
STARLINK-31075          
1 58594U 23200F   24014.58334491 -.00048291  00000+0 -18485-2 0  9999
2 58594  43.0003 126.6884 0001387 273.9191  28.0048 15.25907238  5479
STARLINK-30857          
1 58595U 23200G   24014.41667824 -.00029984  00000+0 -11397-2 0  9994
2 58595  43.0003 127.5660 0001463 262.2559 227.8622 15.25949318  5467
STARLINK-31059          
1 58596U 23200H   24014.53560673 -.00125946  00000+0 -24761-2 0  9996
2 58596  43.0015 126.1787 0005287 307.2973  52.7403 15.46886509  5371
STARLINK-31087          
1 58597U 23200J   24014.58334491 -.00009207  00000+0 -34266-3 0  9992
2 58597  43.0001 126.5681 0001783 266.0479  85.6292 15.25897695  5358
STARLINK-31079          
1 58598U 23200K   24014.58334491  .00106372  00000+0  40287-2 0  9991
2 58598  43.0001 126.5383 0000966 286.7286  77.3082 15.25820388  5467
STARLINK-31072          
1 58599U 23200L   24014.58334491 -.00009814  00000+0 -36595-3 0  9995
2 58599  42.9999 125.7646 0001823 249.0068  66.1238 15.25897239  5477
STARLINK-31052          
1 58600U 23200M   24014.58334491 -.00235579  00000+0 -92617-2 0  9993
2 58600  43.0005 126.5076 0001392 290.9097  85.7323 15.25998649  5473
STARLINK-31074          
1 58601U 23200N   24014.58334491 -.00089267  00000+0 -34427-2 0  9990
2 58601  43.0006 126.4772 0001925 247.7658 141.2185 15.25922329  5467
STARLINK-31071          
1 58602U 23200P   24014.52212819  .00070638  00000+0  12556-2 0  9993
2 58602  43.0011 125.1745 0001865 252.7241 107.3415 15.49275098  5387
STARLINK-31080          
1 58603U 23200Q   24014.58334491  .00050628  00000+0  19364-2 0  9992
2 58603  43.0005 126.4476 0000770 256.2026 145.2207 15.25834492  5192
STARLINK-31088          
1 58604U 23200R   24014.58334491  .00061836  00000+0  23605-2 0  9999
2 58604  43.0002 126.0774 0001935 279.4254 271.2901 15.25817407  5470
STARLINK-31038          
1 58605U 23200S   24014.58334491 -.01834394  00000+0 -74683-1 0  9991
2 58605  43.0006 126.3591 0001780 273.7530 163.9647 15.27440106  5471
STARLINK-31082          
1 58606U 23200T   24014.58334491 -.00924129  00000+0 -37430-1 0  9996
2 58606  43.0006 126.3877 0001162 252.0677 173.9221 15.26506081  5478
STARLINK-31069          
1 58607U 23200U   24014.58334491 -.02193194  00000+0 -87300-1 0  9990
2 58607  43.0007 126.3316 0001321 280.4727 168.6581 15.28235774  5465
STARLINK-31067          
1 58608U 23200V   24014.58334491 -.02200745  00000+0 -85862-1 0  9993
2 58608  43.0005 126.3049 0001178 291.1224 169.1153 15.28897276  5493
STARLINK-31085          
1 58609U 23200W   24014.58334491 -.02201004  00000+0 -84260-1 0  9994
2 58609  43.0005 126.2780 0001144 284.4075 186.7386 15.29507651  5463
STARLINK-31089          
1 58610U 23200X   24014.58334491 -.02203196  00000+0 -87026-1 0  9993
2 58610  43.0003 125.2810 0001123 272.7209 238.9061 15.28503319  5479
STARLINK-31061          
1 58611U 23200Y   24014.58334491 -.02201851  00000+0 -82577-1 0  9996
2 58611  43.0005 126.2518 0001292 287.1200 194.4935 15.30166704  5478
BEAK                    
1 58612U 98067WD  24014.23892407  .00061601  00000+0  93822-3 0  9998
2 58612  51.6410   2.5960 0005953  79.8431 280.3231 15.53887904  4257
CLARK SAT-1 (AMBITIOUS) 
1 58613U 98067WE  24014.41910255  .00112882  00000+0  15943-2 0  9996
2 58613  51.6405   1.5488 0007721  99.4370 260.7494 15.55663960  4250
COSMOS 2573             
1 58614U 23201A   24014.60001980  .00007740  00000+0  34950-3 0  9998
2 58614  97.5597 301.9819 0011214 212.8941 147.1598 15.21207350  3706
SL-4 R/B                
1 58615U 23201B   24014.55179780  .00075058  00000+0  93425-3 0  9996
2 58615  97.5674 302.8959 0110074 340.6564  19.0524 15.52623082  3752
TANTRUM (TYVAK-1015)    
1 58616U 23202A   24014.30466948  .00431480 -95368-5  59214-3 0  9997
2 58616 140.0169 142.4969 0179704 331.8153  27.3059 15.81134436  3551
FIREFLY ALPHA R/B       
1 58617U 23202B   24013.94858304  .01396314 -10025-4  95551-3 0  9995
2 58617 140.0173 141.7579 0127148 331.2657  28.1225 16.00077497  3520
STARLINK-31054          
1 58619U 23203B   24014.58334491 -.02193895  00000+0 -47338-1 0  9991
2 58619  43.0009 175.9609 0001225 288.0205 223.0647 15.47452676  4701
STARLINK-31118          
1 58620U 23203C   24014.58334491 -.02199664  00000+0 -46383-1 0  9992
2 58620  43.0009 175.9574 0001490 257.3799 255.1351 15.48112736  4827
STARLINK-31134          
1 58621U 23203D   24014.58334491 -.00251550  00000+0 -46743-2 0  9995
2 58621  43.0008 175.9478 0002015 231.9668 284.1667 15.49008235  4761
STARLINK-31133          
1 58622U 23203E   24014.58334491 -.02183383  00000+0 -44953-1 0  9996
2 58622  43.0009 175.9545 0001549 253.1141 260.5011 15.48758321  4826
STARLINK-31068          
1 58623U 23203F   24014.58334491 -.02052461  00000+0 -41088-1 0  9995
2 58623  43.0009 175.9528 0001684 257.2482 257.1711 15.49323266  4760
STARLINK-31129          
1 58624U 23203G   24014.58334491 -.01155282  00000+0 -22550-1 0  9993
2 58624  43.0008 175.9508 0001483 248.6735 266.5749 15.49289179  4769
STARLINK-30774          
1 58625U 23203H   24014.58334491 -.00012653  00000+0 -22307-3 0  9999
2 58625  43.0008 175.9428 0002097 244.5652 273.2719 15.48914918  4820
STARLINK-31086          
1 58626U 23203J   24014.58334491 -.00006080  00000+0 -10395-3 0  9991
2 58626  43.0006 175.9460 0002032 242.8769 274.1172 15.48913760  4810
STARLINK-31065          
1 58627U 23203K   24014.58334491 -.00021664  00000+0 -38662-3 0  9994
2 58627  43.0007 175.9387 0001892 234.1637 285.3554 15.48921138  4716
STARLINK-31092          
1 58628U 23203L   24014.58334491  .00005340  00000+0  10257-3 0  9996
2 58628  43.0007 175.9408 0002171 239.4676 279.2190 15.48902631  4763
STARLINK-31091          
1 58629U 23203M   24014.58334491 -.00016050  00000+0 -28468-3 0  9992
2 58629  43.0007 175.9365 0002152 242.3450 278.0190 15.48916876  4659
STARLINK-31084          
1 58630U 23203N   24014.58334491 -.00006764  00000+0 -11636-3 0  9994
2 58630  43.0008 175.9341 0001780 242.1133 279.0963 15.48910821  4820
STARLINK-31064          
1 58631U 23203P   24014.58334491 -.00000624  00000+0 -52225-5 0  9995
2 58631  43.0008 175.9294 0001971 236.6003 286.2950 15.48908332  4767
STARLINK-31081          
1 58632U 23203Q   24014.58334491  .00001567  00000+0  34393-4 0  9996
2 58632  43.0007 175.9277 0002182 243.6104 280.1291 15.48906134  4762
STARLINK-31022          
1 58633U 23203R   24014.58334491 -.00014360  00000+0 -25404-3 0  9996
2 58633  43.0007 175.9318 0001859 237.8167 284.2328 15.48915648  4815
